[{"OBJECT_NAME":"ONEWEB-0457","OBJECT_ID":"2022-012AB","EPOCH":"2025-12-03T07:26:56.379264","MEAN_MOTION":13.1037375,"ECCENTRICITY":0.00012504,"INCLINATION":87.8811,"RA_OF_ASC_NODE":75.3258,"ARG_OF_PERICENTER":114.4663,"MEAN_ANOMALY":245.6595,"EPHEMERIS_TYPE":0,"CLASSIFICATION_TYPE":"U","NORAD_CAT_ID":51647,"ELEMENT_SET_NO":999,"REV_AT_EPOCH":18369,"BSTAR":-0.001857702,"MEAN_MOTION_DOT":-6.36e-6,"MEAN_MOTION_DDOT":0},{"OBJECT_NAME":"ONEWEB-0458","OBJECT_ID":"2022-012AC","EPOCH":"2025-12-03T06:08:05.542944","MEAN_MOTION":13.10375578,"ECCENTRICITY":0.00016709,"INCLINATION":87.8818,"RA_OF_ASC_NODE":75.3092,"ARG_OF_PERICENTER":109.5671,"MEAN_ANOMALY":250.5637,"EPHEMERIS_TYPE":0,"CLASSIFICATION_TYPE":"U","NORAD_CAT_ID":51648,"ELEMENT_SET_NO":999,"REV_AT_EPOCH":18364,"BSTAR":0.00087446654,"MEAN_MOTION_DOT":3.18e-6,"MEAN_MOTION_DDOT":0},{"OBJECT_NAME":"ONEWEB-0461","OBJECT_ID":"2022-012AD","EPOCH":"2025-12-03T05:42:29.228256","MEAN_MOTION":13.17649112,"ECCENTRICITY":0.00016261,"INCLINATION":87.9128,"RA_OF_ASC_NODE":44.8087,"ARG_OF_PERICENTER":99.5289,"MEAN_ANOMALY":260.6026,"EPHEMERIS_TYPE":0,"CLASSIFICATION_TYPE":"U","NORAD_CAT_ID":51649,"ELEMENT_SET_NO":999,"REV_AT_EPOCH":18808,"BSTAR":3.5282536e-5,"MEAN_MOTION_DOT":2.7e-7,"MEAN_MOTION_DDOT":0},{"OBJECT_NAME":"ONEWEB-0463","OBJECT_ID":"2022-012AE","EPOCH":"2025-12-03T05:15:45.180288","MEAN_MOTION":13.17648259,"ECCENTRICITY":0.00017365,"INCLINATION":87.9109,"RA_OF_ASC_NODE":44.8578,"ARG_OF_PERICENTER":103.2437,"MEAN_ANOMALY":256.8888,"EPHEMERIS_TYPE":0,"CLASSIFICATION_TYPE":"U","NORAD_CAT_ID":51650,"ELEMENT_SET_NO":999,"REV_AT_EPOCH":18786,"BSTAR":8.1553854e-5,"MEAN_MOTION_DOT":4.5e-7,"MEAN_MOTION_DDOT":0},{"OBJECT_NAME":"ONEWEB-0464","OBJECT_ID":"2022-012AF","EPOCH":"2025-12-03T07:53:15.318528","MEAN_MOTION":13.10376266,"ECCENTRICITY":0.00018321,"INCLINATION":87.8811,"RA_OF_ASC_NODE":75.3313,"ARG_OF_PERICENTER":98.5687,"MEAN_ANOMALY":261.5648,"EPHEMERIS_TYPE":0,"CLASSIFICATION_TYPE":"U","NORAD_CAT_ID":51651,"ELEMENT_SET_NO":999,"REV_AT_EPOCH":18367,"BSTAR":0.00072673796,"MEAN_MOTION_DOT":2.66e-6,"MEAN_MOTION_DDOT":0},{"OBJECT_NAME":"ONEWEB-0468","OBJECT_ID":"2022-012AG","EPOCH":"2025-12-03T08:02:49.380000","MEAN_MOTION":13.10375201,"ECCENTRICITY":0.00018106,"INCLINATION":87.8811,"RA_OF_ASC_NODE":75.3229,"ARG_OF_PERICENTER":104.853,"MEAN_ANOMALY":255.2798,"EPHEMERIS_TYPE":0,"CLASSIFICATION_TYPE":"U","NORAD_CAT_ID":51652,"ELEMENT_SET_NO":999,"REV_AT_EPOCH":18365,"BSTAR":0.0013866325,"MEAN_MOTION_DOT":4.97e-6,"MEAN_MOTION_DDOT":0},{"OBJECT_NAME":"ONEWEB-0473","OBJECT_ID":"2022-012AH","EPOCH":"2025-12-03T07:41:17.774304","MEAN_MOTION":13.10376494,"ECCENTRICITY":0.00016923,"INCLINATION":87.8811,"RA_OF_ASC_NODE":75.3291,"ARG_OF_PERICENTER":106.7182,"MEAN_ANOMALY":253.4132,"EPHEMERIS_TYPE":0,"CLASSIFICATION_TYPE":"U","NORAD_CAT_ID":51653,"ELEMENT_SET_NO":999,"REV_AT_EPOCH":18365,"BSTAR":-0.000586975,"MEAN_MOTION_DOT":-1.92e-6,"MEAN_MOTION_DDOT":0},{"OBJECT_NAME":"ONEWEB-0474","OBJECT_ID":"2022-012AJ","EPOCH":"2025-12-03T07:29:20.111712","MEAN_MOTION":13.10374658,"ECCENTRICITY":0.00018922,"INCLINATION":87.8819,"RA_OF_ASC_NODE":75.2969,"ARG_OF_PERICENTER":103.5053,"MEAN_ANOMALY":256.6285,"EPHEMERIS_TYPE":0,"CLASSIFICATION_TYPE":"U","NORAD_CAT_ID":51654,"ELEMENT_SET_NO":999,"REV_AT_EPOCH":18364,"BSTAR":-0.0017730378,"MEAN_MOTION_DOT":-6.06e-6,"MEAN_MOTION_DDOT":0},{"OBJECT_NAME":"ONEWEB-0475","OBJECT_ID":"2022-012AK","EPOCH":"2025-12-03T05:32:45.563424","MEAN_MOTION":13.17647846,"ECCENTRICITY":0.00024081,"INCLINATION":87.9117,"RA_OF_ASC_NODE":44.8439,"ARG_OF_PERICENTER":108.7844,"MEAN_ANOMALY":251.3549,"EPHEMERIS_TYPE":0,"CLASSIFICATION_TYPE":"U","NORAD_CAT_ID":51655,"ELEMENT_SET_NO":999,"REV_AT_EPOCH":18788,"BSTAR":9.874196e-5,"MEAN_MOTION_DOT":5.1e-7,"MEAN_MOTION_DDOT":0},{"OBJECT_NAME":"ONEWEB-0490","OBJECT_ID":"2022-138A","EPOCH":"2025-12-03T01:44:11.572224","MEAN_MOTION":13.19723968,"ECCENTRICITY":0.00019942,"INCLINATION":87.921,"RA_OF_ASC_NODE":343.9786,"ARG_OF_PERICENTER":88.0031,"MEAN_ANOMALY":272.133,"EPHEMERIS_TYPE":0,"CLASSIFICATION_TYPE":"U","NORAD_CAT_ID":54113,"ELEMENT_SET_NO":999,"REV_AT_EPOCH":15096,"BSTAR":9.8816647e-5,"MEAN_MOTION_DOT":5.3e-7,"MEAN_MOTION_DDOT":0},{"OBJECT_NAME":"ONEWEB-0492","OBJECT_ID":"2022-138B","EPOCH":"2025-12-03T00:31:24.159360","MEAN_MOTION":13.19724631,"ECCENTRICITY":0.00018915,"INCLINATION":87.92,"RA_OF_ASC_NODE":344.0044,"ARG_OF_PERICENTER":84.5632,"MEAN_ANOMALY":275.5717,"EPHEMERIS_TYPE":0,"CLASSIFICATION_TYPE":"U","NORAD_CAT_ID":54114,"ELEMENT_SET_NO":999,"REV_AT_EPOCH":15096,"BSTAR":9.604999e-6,"MEAN_MOTION_DOT":1.7e-7,"MEAN_MOTION_DDOT":0},{"OBJECT_NAME":"ONEWEB-0495","OBJECT_ID":"2022-138C","EPOCH":"2025-12-03T01:48:43.068672","MEAN_MOTION":13.19727445,"ECCENTRICITY":0.00024791,"INCLINATION":87.9194,"RA_OF_ASC_NODE":343.998,"ARG_OF_PERICENTER":85.874,"MEAN_ANOMALY":274.2677,"EPHEMERIS_TYPE":0,"CLASSIFICATION_TYPE":"U","NORAD_CAT_ID":54115,"ELEMENT_SET_NO":999,"REV_AT_EPOCH":15095,"BSTAR":-1.3956817e-5,"MEAN_MOTION_DOT":7.0e-8,"MEAN_MOTION_DDOT":0},{"OBJECT_NAME":"ONEWEB-0497","OBJECT_ID":"2022-138D","EPOCH":"2025-12-03T07:34:27.189408","MEAN_MOTION":13.19723655,"ECCENTRICITY":0.00018833,"INCLINATION":87.9201,"RA_OF_ASC_NODE":343.936,"ARG_OF_PERICENTER":88.9141,"MEAN_ANOMALY":271.2207,"EPHEMERIS_TYPE":0,"CLASSIFICATION_TYPE":"U","NORAD_CAT_ID":54116,"ELEMENT_SET_NO":999,"REV_AT_EPOCH":15097,"BSTAR":0.00019824619,"MEAN_MOTION_DOT":9.2e-7,"MEAN_MOTION_DDOT":0},{"OBJECT_NAME":"ONEWEB-0499","OBJECT_ID":"2022-138E","EPOCH":"2025-12-03T01:43:03.986688","MEAN_MOTION":13.19724643,"ECCENTRICITY":0.0001966,"INCLINATION":87.92,"RA_OF_ASC_NODE":343.9978,"ARG_OF_PERICENTER":93.9186,"MEAN_ANOMALY":266.2172,"EPHEMERIS_TYPE":0,"CLASSIFICATION_TYPE":"U","NORAD_CAT_ID":54117,"ELEMENT_SET_NO":999,"REV_AT_EPOCH":15095,"BSTAR":0.00010676254,"MEAN_MOTION_DOT":5.6e-7,"MEAN_MOTION_DDOT":0},{"OBJECT_NAME":"ONEWEB-0500","OBJECT_ID":"2022-138F","EPOCH":"2025-12-03T01:46:27.439680","MEAN_MOTION":13.19723336,"ECCENTRICITY":0.0001755,"INCLINATION":87.9202,"RA_OF_ASC_NODE":343.9847,"ARG_OF_PERICENTER":87.8773,"MEAN_ANOMALY":272.2561,"EPHEMERIS_TYPE":0,"CLASSIFICATION_TYPE":"U","NORAD_CAT_ID":54118,"ELEMENT_SET_NO":999,"REV_AT_EPOCH":15096,"BSTAR":0.00018609235,"MEAN_MOTION_DOT":8.7e-7,"MEAN_MOTION_DDOT":0},{"OBJECT_NAME":"ONEWEB-0501","OBJECT_ID":"2022-138G","EPOCH":"2025-12-03T06:08:02.183712","MEAN_MOTION":13.19723789,"ECCENTRICITY":0.00021754,"INCLINATION":87.921,"RA_OF_ASC_NODE":343.9462,"ARG_OF_PERICENTER":89.1836,"MEAN_ANOMALY":270.9546,"EPHEMERIS_TYPE":0,"CLASSIFICATION_TYPE":"U","NORAD_CAT_ID":54119,"ELEMENT_SET_NO":999,"REV_AT_EPOCH":15096,"BSTAR":-0.00017317557,"MEAN_MOTION_DOT":-5.6e-7,"MEAN_MOTION_DDOT":0},{"OBJECT_NAME":"ONEWEB-0502","OBJECT_ID":"2022-138H","EPOCH":"2025-12-03T07:36:44.359776","MEAN_MOTION":13.19723765,"ECCENTRICITY":0.00020649,"INCLINATION":87.9209,"RA_OF_ASC_NODE":343.9156,"ARG_OF_PERICENTER":92.4994,"MEAN_ANOMALY":267.6375,"EPHEMERIS_TYPE":0,"CLASSIFICATION_TYPE":"U","NORAD_CAT_ID":54120,"ELEMENT_SET_NO":999,"REV_AT_EPOCH":15099,"BSTAR":-8.826826e-6,"MEAN_MOTION_DOT":9.0e-8,"MEAN_MOTION_DDOT":0},{"OBJECT_NAME":"ONEWEB-0503","OBJECT_ID":"2022-138J","EPOCH":"2025-12-03T07:20:48.469920","MEAN_MOTION":13.1972339,"ECCENTRICITY":0.00018073,"INCLINATION":87.9209,"RA_OF_ASC_NODE":343.9217,"ARG_OF_PERICENTER":99.6037,"MEAN_ANOMALY":260.53,"EPHEMERIS_TYPE":0,"CLASSIFICATION_TYPE":"U","NORAD_CAT_ID":54121,"ELEMENT_SET_NO":999,"REV_AT_EPOCH":15098,"BSTAR":0.00011810038,"MEAN_MOTION_DOT":6.0e-7,"MEAN_MOTION_DDOT":0},{"OBJECT_NAME":"ONEWEB-0504","OBJECT_ID":"2022-138K","EPOCH":"2025-12-03T01:35:04.427808","MEAN_MOTION":13.19723849,"ECCENTRICITY":0.00020949,"INCLINATION":87.9204,"RA_OF_ASC_NODE":343.986,"ARG_OF_PERICENTER":94.3413,"MEAN_ANOMALY":265.7959,"EPHEMERIS_TYPE":0,"CLASSIFICATION_TYPE":"U","NORAD_CAT_ID":54122,"ELEMENT_SET_NO":999,"REV_AT_EPOCH":15096,"BSTAR":-0.0008407637,"MEAN_MOTION_DOT":-3.24e-6,"MEAN_MOTION_DDOT":0},{"OBJECT_NAME":"ONEWEB-0505","OBJECT_ID":"2022-138L","EPOCH":"2025-12-03T01:30:32.284224","MEAN_MOTION":13.19723352,"ECCENTRICITY":0.00023673,"INCLINATION":87.9212,"RA_OF_ASC_NODE":343.9761,"ARG_OF_PERICENTER":91.1859,"MEAN_ANOMALY":268.9545,"EPHEMERIS_TYPE":0,"CLASSIFICATION_TYPE":"U","NORAD_CAT_ID":54123,"ELEMENT_SET_NO":999,"REV_AT_EPOCH":15094,"BSTAR":9.1413061e-5,"MEAN_MOTION_DOT":5.0e-7,"MEAN_MOTION_DDOT":0},{"OBJECT_NAME":"ONEWEB-0506","OBJECT_ID":"2022-138M","EPOCH":"2025-12-03T06:21:40.728672","MEAN_MOTION":13.19724129,"ECCENTRICITY":0.00019783,"INCLINATION":87.9207,"RA_OF_ASC_NODE":343.9332,"ARG_OF_PERICENTER":90.5425,"MEAN_ANOMALY":269.5934,"EPHEMERIS_TYPE":0,"CLASSIFICATION_TYPE":"U","NORAD_CAT_ID":54124,"ELEMENT_SET_NO":999,"REV_AT_EPOCH":15096,"BSTAR":7.0756227e-5,"MEAN_MOTION_DOT":4.1e-7,"MEAN_MOTION_DDOT":0},{"OBJECT_NAME":"ONEWEB-0507","OBJECT_ID":"2022-138N","EPOCH":"2025-12-03T01:23:42.945216","MEAN_MOTION":13.19723813,"ECCENTRICITY":0.00020562,"INCLINATION":87.9193,"RA_OF_ASC_NODE":344.011,"ARG_OF_PERICENTER":88.3904,"MEAN_ANOMALY":271.7464,"EPHEMERIS_TYPE":0,"CLASSIFICATION_TYPE":"U","NORAD_CAT_ID":54125,"ELEMENT_SET_NO":999,"REV_AT_EPOCH":15098,"BSTAR":7.0990543e-5,"MEAN_MOTION_DOT":4.1e-7,"MEAN_MOTION_DDOT":0},{"OBJECT_NAME":"ONEWEB-0508","OBJECT_ID":"2022-138P","EPOCH":"2025-12-03T01:19:10.575264","MEAN_MOTION":13.19724367,"ECCENTRICITY":0.00021295,"INCLINATION":87.92,"RA_OF_ASC_NODE":344.0046,"ARG_OF_PERICENTER":86.158,"MEAN_ANOMALY":273.9796,"EPHEMERIS_TYPE":0,"CLASSIFICATION_TYPE":"U","NORAD_CAT_ID":54126,"ELEMENT_SET_NO":999,"REV_AT_EPOCH":15096,"BSTAR":0.00021428943,"MEAN_MOTION_DOT":9.9e-7,"MEAN_MOTION_DDOT":0}]
